{"type": "FeatureCollection", "features": [ {"type": "Feature", "properties": {"norad_id": 66594, "name": "STARLINK-36032", "group": "last-30-days", "lat": 29.243922156027516, "lon": -90.18417853549028, "alt_km": 351.694631428707, "timestamp": "2025-12-05T22:40:47.342720+00:00", "meta": {"OBJECT_NAME": "STARLINK-36032", "OBJECT_ID": "2025-270G", "EPOCH": "2025-12-05T06:00:02.000160", "MEAN_MOTION": 15.74052086, "ECCENTRICITY": 0.00015872, "INCLINATION": 42.9987, "RA_OF_ASC_NODE": 237.0854, "ARG_OF_PERICENTER": 274.5611, "MEAN_ANOMALY": 151.9562, "EPHEMERIS_TYPE": 0, "CLASSIFICATION_TYPE": "U", "NORAD_CAT_ID": 66594, "ELEMENT_SET_NO": 999, "REV_AT_EPOCH": 293, "BSTAR": -0.014726793, "MEAN_MOTION_DOT": -0.01886013, "MEAN_MOTION_DDOT": 0}, "tle": {"line1": "1 66594U 25270G   25339.25002315 -.01886013  00000+0 -14727-1 0  9996", "line2": "2 66594  42.9987 237.0854 0001587 274.5611 151.9562 15.74052086  2938"}}, "geometry": {"type": "Point", "coordinates": [-90.18417853549028, 29.243922156027516]}}, {"type": "Feature", "properties": {"norad_id": 66595, "name": "STARLINK-35711", "group": "last-30-days", "lat": 30.277615659379602, "lon": -88.32535110045934, "alt_km": 351.44961731695184, "timestamp": "2025-12-05T22:40:47.342731+00:00", "meta": {"OBJECT_NAME": "STARLINK-35711", "OBJECT_ID": "2025-270H", "EPOCH": "2025-12-05T06:00:02.000160", "MEAN_MOTION": 15.74049094, "ECCENTRICITY": 0.00016099, "INCLINATION": 42.9987, "RA_OF_ASC_NODE": 237.0794, "ARG_OF_PERICENTER": 279.0788, "MEAN_ANOMALY": 149.358, "EPHEMERIS_TYPE": 0, "CLASSIFICATION_TYPE": "U", "NORAD_CAT_ID": 66595, "ELEMENT_SET_NO": 999, "REV_AT_EPOCH": 330, "BSTAR": -0.014705838, "MEAN_MOTION_DOT": -0.01883495, "MEAN_MOTION_DDOT": 0}, "tle": {"line1": "1 66595U 25270H   25339.25002315 -.01883495  00000+0 -14706-1 0  9995", "line2": "2 66595  42.9987 237.0794 0001609 279.0788 149.3580 15.74049094  3300"}}, "geometry": {"type": "Point", "coordinates": [-88.32535110045934, 30.277615659379602]}}, {"type": "Feature", "properties": {"norad_id": 66596, "name": "STARLINK-35811", "group": "last-30-days", "lat": 31.28581242358022, "lon": -86.42253896711883, "alt_km": 351.28498963783477, "timestamp": "2025-12-05T22:40:47.342743+00:00", "meta": {"OBJECT_NAME": "STARLINK-35811", "OBJECT_ID": "2025-270J", "EPOCH": "2025-12-05T06:00:02.000160", "MEAN_MOTION": 15.74025221, "ECCENTRICITY": 0.00012125, "INCLINATION": 42.9988, "RA_OF_ASC_NODE": 237.0755, "ARG_OF_PERICENTER": 270.668, "MEAN_ANOMALY": 159.7, "EPHEMERIS_TYPE": 0, "CLASSIFICATION_TYPE": "U", "NORAD_CAT_ID": 66596, "ELEMENT_SET_NO": 999, "REV_AT_EPOCH": 330, "BSTAR": -0.014480252, "MEAN_MOTION_DOT": -0.01856379, "MEAN_MOTION_DDOT": 0}, "tle": {"line1": "1 66596U 25270J   25339.25002315 -.01856379  00000+0 -14480-1 0  9996", "line2": "2 66596  42.9988 237.0755 0001212 270.6680 159.7000 15.74025221  3305"}}, "geometry": {"type": "Point", "coordinates": [-86.42253896711883, 31.28581242358022]}}, {"type": "Feature", "properties": {"norad_id": 66597, "name": "STARLINK-35820", "group": "last-30-days", "lat": 32.25648622783718, "lon": -84.49754305215396, "alt_km": 351.2244185620366, "timestamp": "2025-12-05T22:40:47.342753+00:00", "meta": {"OBJECT_NAME": "STARLINK-35820", "OBJECT_ID": "2025-270K", "EPOCH": "2025-12-05T06:00:02.000160", "MEAN_MOTION": 15.74069018, "ECCENTRICITY": 0.00014643, "INCLINATION": 42.9987, "RA_OF_ASC_NODE": 237.0707, "ARG_OF_PERICENTER": 277.5139, "MEAN_ANOMALY": 154.742, "EPHEMERIS_TYPE": 0, "CLASSIFICATION_TYPE": "U", "NORAD_CAT_ID": 66597, "ELEMENT_SET_NO": 999, "REV_AT_EPOCH": 330, "BSTAR": -0.014867396, "MEAN_MOTION_DOT": -0.01902692, "MEAN_MOTION_DDOT": 0}, "tle": {"line1": "1 66597U 25270K   25339.25002315 -.01902692  00000+0 -14867-1 0  9996", "line2": "2 66597  42.9987 237.0707 0001464 277.5139 154.7420 15.74069018  3309"}}, "geometry": {"type": "Point", "coordinates": [-84.49754305215396, 32.25648622783718]}}, {"type": "Feature", "properties": {"norad_id": 66598, "name": "STARLINK-35981", "group": "last-30-days", "lat": 33.214901397699876, "lon": -82.49410946859248, "alt_km": 350.8865904179647, "timestamp": "2025-12-05T22:40:47.342763+00:00", "meta": {"OBJECT_NAME": "STARLINK-35981", "OBJECT_ID": "2025-270L", "EPOCH": "2025-12-05T06:00:02.000160", "MEAN_MOTION": 15.74014795, "ECCENTRICITY": 0.0001604, "INCLINATION": 42.9987, "RA_OF_ASC_NODE": 237.0653, "ARG_OF_PERICENTER": 283.939, "MEAN_ANOMALY": 150.2719, "EPHEMERIS_TYPE": 0, "CLASSIFICATION_TYPE": "U", "NORAD_CAT_ID": 66598, "ELEMENT_SET_NO": 999, "REV_AT_EPOCH": 303, "BSTAR": -0.014398926, "MEAN_MOTION_DOT": -0.01846914, "MEAN_MOTION_DDOT": 0}, "tle": {"line1": "1 66598U 25270L   25339.25002315 -.01846914  00000+0 -14399-1 0  9991", "line2": "2 66598  42.9987 237.0653 0001604 283.9390 150.2719 15.74014795  3030"}}, "geometry": {"type": "Point", "coordinates": [-82.49410946859248, 33.214901397699876]}}, {"type": "Feature", "properties": {"norad_id": 66599, "name": "STARLINK-35930", "group": "last-30-days", "lat": 34.12047122035473, "lon": -80.49123098765014, "alt_km": 351.16101895397605, "timestamp": "2025-12-05T22:40:47.342776+00:00", "meta": {"OBJECT_NAME": "STARLINK-35930", "OBJECT_ID": "2025-270M", "EPOCH": "2025-12-05T06:00:02.000160", "MEAN_MOTION": 15.7404661, "ECCENTRICITY": 0.00015464, "INCLINATION": 42.9987, "RA_OF_ASC_NODE": 237.061, "ARG_OF_PERICENTER": 269.9549, "MEAN_ANOMALY": 166.1515, "EPHEMERIS_TYPE": 0, "CLASSIFICATION_TYPE": "U", "NORAD_CAT_ID": 66599, "ELEMENT_SET_NO": 999, "REV_AT_EPOCH": 319, "BSTAR": -0.014681403, "MEAN_MOTION_DOT": -0.01880549, "MEAN_MOTION_DDOT": 0}, "tle": {"line1": "1 66599U 25270M   25339.25002315 -.01880549  00000+0 -14681-1 0  9998", "line2": "2 66599  42.9987 237.0610 0001546 269.9549 166.1515 15.74046610  3197"}}, "geometry": {"type": "Point", "coordinates": [-80.49123098765014, 34.12047122035473]}}, {"type": "Feature", "properties": {"norad_id": 66600, "name": "STARLINK-35980", "group": "last-30-days", "lat": 35.00129108480151, "lon": -78.42527930271103, "alt_km": 350.75889688512507, "timestamp": "2025-12-05T22:40:47.342786+00:00", "meta": {"OBJECT_NAME": "STARLINK-35980", "OBJECT_ID": "2025-270N", "EPOCH": "2025-12-05T06:00:02.000160", "MEAN_MOTION": 15.74054996, "ECCENTRICITY": 0.00012681, "INCLINATION": 42.9987, "RA_OF_ASC_NODE": 237.0563, "ARG_OF_PERICENTER": 277.1699, "MEAN_ANOMALY": 160.8453, "EPHEMERIS_TYPE": 0, "CLASSIFICATION_TYPE": "U", "NORAD_CAT_ID": 66600, "ELEMENT_SET_NO": 999, "REV_AT_EPOCH": 309, "BSTAR": -0.014730516, "MEAN_MOTION_DOT": -0.01886351, "MEAN_MOTION_DDOT": 0}, "tle": {"line1": "1 66600U 25270N   25339.25002315 -.01886351  00000+0 -14731-1 0  9994", "line2": "2 66600  42.9987 237.0563 0001268 277.1699 160.8453 15.74054996  3092"}}, "geometry": {"type": "Point", "coordinates": [-78.42527930271103, 35.00129108480151]}}, {"type": "Feature", "properties": {"norad_id": 66601, "name": "STARLINK-35978", "group": "last-30-days", "lat": 35.84519639948566, "lon": -76.31835413853935, "alt_km": 350.92103718657654, "timestamp": "2025-12-05T22:40:47.342796+00:00", "meta": {"OBJECT_NAME": "STARLINK-35978", "OBJECT_ID": "2025-270P", "EPOCH": "2025-12-05T06:00:02.000160", "MEAN_MOTION": 15.7406469, "ECCENTRICITY": 0.00015565, "INCLINATION": 42.9989, "RA_OF_ASC_NODE": 237.0515, "ARG_OF_PERICENTER": 272.5118, "MEAN_ANOMALY": 167.4122, "EPHEMERIS_TYPE": 0, "CLASSIFICATION_TYPE": "U", "NORAD_CAT_ID": 66601, "ELEMENT_SET_NO": 999, "REV_AT_EPOCH": 303, "BSTAR": -0.014803941, "MEAN_MOTION_DOT": -0.0189544, "MEAN_MOTION_DDOT": 0}, "tle": {"line1": "1 66601U 25270P   25339.25002315 -.01895440  00000+0 -14804-1 0  9995", "line2": "2 66601  42.9989 237.0515 0001556 272.5118 167.4122 15.74064690  3039"}}, "geometry": {"type": "Point", "coordinates": [-76.31835413853935, 35.84519639948566]}}, {"type": "Feature", "properties": {"norad_id": 66602, "name": "STARLINK-36050", "group": "last-30-days", "lat": 36.65186484102468, "lon": -74.16481943977777, "alt_km": 350.8428769238453, "timestamp": "2025-12-05T22:40:47.342806+00:00", "meta": {"OBJECT_NAME": "STARLINK-36050", "OBJECT_ID": "2025-270Q", "EPOCH": "2025-12-05T06:00:02.000160", "MEAN_MOTION": 15.74055648, "ECCENTRICITY": 0.00017702, "INCLINATION": 42.9987, "RA_OF_ASC_NODE": 237.0465, "ARG_OF_PERICENTER": 277.608, "MEAN_ANOMALY": 164.245, "EPHEMERIS_TYPE": 0, "CLASSIFICATION_TYPE": "U", "NORAD_CAT_ID": 66602, "ELEMENT_SET_NO": 999, "REV_AT_EPOCH": 309, "BSTAR": -0.014781575, "MEAN_MOTION_DOT": -0.01892509, "MEAN_MOTION_DDOT": 0}, "tle": {"line1": "1 66602U 25270Q   25339.25002315 -.01892509  00000+0 -14782-1 0  9994", "line2": "2 66602  42.9987 237.0465 0001770 277.6080 164.2450 15.74055648  3092"}}, "geometry": {"type": "Point", "coordinates": [-74.16481943977777, 36.65186484102468]}}, {"type": "Feature", "properties": {"norad_id": 66603, "name": "STARLINK-36048", "group": "last-30-days", "lat": 37.42180705263475, "lon": -71.95957157152863, "alt_km": 350.518339460421, "timestamp": "2025-12-05T22:40:47.342816+00:00", "meta": {"OBJECT_NAME": "STARLINK-36048", "OBJECT_ID": "2025-270R", "EPOCH": "2025-12-05T06:00:02.000160", "MEAN_MOTION": 15.74053246, "ECCENTRICITY": 0.00015444, "INCLINATION": 42.9989, "RA_OF_ASC_NODE": 237.0408, "ARG_OF_PERICENTER": 281.3997, "MEAN_ANOMALY": 162.3677, "EPHEMERIS_TYPE": 0, "CLASSIFICATION_TYPE": "U", "NORAD_CAT_ID": 66603, "ELEMENT_SET_NO": 999, "REV_AT_EPOCH": 309, "BSTAR": -0.014718439, "MEAN_MOTION_DOT": -0.0188513, "MEAN_MOTION_DDOT": 0}, "tle": {"line1": "1 66603U 25270R   25339.25002315 -.01885130  00000+0 -14718-1 0  9996", "line2": "2 66603  42.9989 237.0408 0001544 281.3997 162.3677 15.74053246  3092"}}, "geometry": {"type": "Point", "coordinates": [-71.95957157152863, 37.42180705263475]}}]}